STARLINK-1050
1 14755C 19074AU  21326.15041551  .00006533  00000-0  43781-3 0  3269
2 14755  53.0525  68.0962 0001169  77.1689 331.4851 15.06384388    15
